[{"OBJECT_NAME":"STARLINK-3194","OBJECT_ID":"2021-115AL","EPOCH":"2026-03-09T10:18:27.803808","MEAN_MOTION":15.08835621,"ECCENTRICITY":0.00016346,"INCLINATION":53.2166,"RA_OF_ASC_NODE":140.2941,"ARG_OF_PERICENTER":81.7139,"MEAN_ANOMALY":278.4039,"EPHEMERIS_TYPE":0,"CLASSIFICATION_TYPE":"U","NORAD_CAT_ID":49758,"ELEMENT_SET_NO":999,"REV_AT_EPOCH":23563,"BSTAR":-0.00016993304,"MEAN_MOTION_DOT":-2.991e-5,"MEAN_MOTION_DDOT":0},{"OBJECT_NAME":"CZ-4B DEB","OBJECT_ID":"2008-053M","EPOCH":"2026-03-05T07:18:48.921696","MEAN_MOTION":15.08195439,"ECCENTRICITY":0.0017401,"INCLINATION":97.8281,"RA_OF_ASC_NODE":90.6528,"ARG_OF_PERICENTER":258.7901,"MEAN_ANOMALY":101.1371,"EPHEMERIS_TYPE":0,"CLASSIFICATION_TYPE":"U","NORAD_CAT_ID":44593,"ELEMENT_SET_NO":999,"REV_AT_EPOCH":67199,"BSTAR":0.00019653,"MEAN_MOTION_DOT":2.982e-5,"MEAN_MOTION_DDOT":0}]
